CCSDS_OMM_VERS = 2.0
CREATION_DATE  = 
ORIGINATOR     = 

OBJECT_NAME    = SL-3 R/B
OBJECT_ID      = 1982-079B
CENTER_NAME    = EARTH
REF_FRAME      = TEME
TIME_SYSTEM    = UTC
MEAN_ELEMENT_THEORY = SGP/SGP4

EPOCH          = 2025-11-30T01:41:18.466368
MEAN_MOTION    = 15.23369746
ECCENTRICITY   = .0026502
INCLINATION    = 81.1462
RA_OF_ASC_NODE = 310.5941
ARG_OF_PERICENTER = 139.8845
MEAN_ANOMALY   = 220.4351

EPHEMERIS_TYPE = 0
CLASSIFICATION_TYPE = U
NORAD_CAT_ID   = 13403
ELEMENT_SET_NO = 999
REV_AT_EPOCH   = 36252
BSTAR          = .27604E-3
MEAN_MOTION_DOT = .6652E-4
MEAN_MOTION_DDOT = 0

CCSDS_OMM_VERS = 2.0
CREATION_DATE  = 
ORIGINATOR     = 

OBJECT_NAME    = SL-14 R/B
OBJECT_ID      = 1982-092B
CENTER_NAME    = EARTH
REF_FRAME      = TEME
TIME_SYSTEM    = UTC
MEAN_ELEMENT_THEORY = SGP/SGP4

EPOCH          = 2025-11-30T04:19:07.512384
MEAN_MOTION    = 14.86535038
ECCENTRICITY   = .0018817
INCLINATION    = 82.5689
RA_OF_ASC_NODE = 234.4567
ARG_OF_PERICENTER = 271.9431
MEAN_ANOMALY   = 252.9491

EPHEMERIS_TYPE = 0
CLASSIFICATION_TYPE = U
NORAD_CAT_ID   = 13553
ELEMENT_SET_NO = 999
REV_AT_EPOCH   = 31414
BSTAR          = .69591E-4
MEAN_MOTION_DOT = .642E-5
MEAN_MOTION_DDOT = 0

CCSDS_OMM_VERS = 2.0
CREATION_DATE  = 
ORIGINATOR     = 

OBJECT_NAME    = SL-3 R/B
OBJECT_ID      = 1983-010B
CENTER_NAME    = EARTH
REF_FRAME      = TEME
TIME_SYSTEM    = UTC
MEAN_ELEMENT_THEORY = SGP/SGP4

EPOCH          = 2025-11-29T20:50:54.182688
MEAN_MOTION    = 15.42950932
ECCENTRICITY   = .001778
INCLINATION    = 81.1022
RA_OF_ASC_NODE = 124.3231
ARG_OF_PERICENTER = 35.6889
MEAN_ANOMALY   = 324.5538

EPHEMERIS_TYPE = 0
CLASSIFICATION_TYPE = U
NORAD_CAT_ID   = 13819
ELEMENT_SET_NO = 999
REV_AT_EPOCH   = 34253
BSTAR          = .34106E-3
MEAN_MOTION_DOT = .15129E-3
MEAN_MOTION_DDOT = 0

CCSDS_OMM_VERS = 2.0
CREATION_DATE  = 
ORIGINATOR     = 

OBJECT_NAME    = SL-3 R/B
OBJECT_ID      = 1983-075B
CENTER_NAME    = EARTH
REF_FRAME      = TEME
TIME_SYSTEM    = UTC
MEAN_ELEMENT_THEORY = SGP/SGP4

EPOCH          = 2025-11-30T01:59:54.369888
MEAN_MOTION    = 15.35754829
ECCENTRICITY   = .0021407
INCLINATION    = 97.6106
RA_OF_ASC_NODE = 330.1461
ARG_OF_PERICENTER = 222.1798
MEAN_ANOMALY   = 137.7798

EPHEMERIS_TYPE = 0
CLASSIFICATION_TYPE = U
NORAD_CAT_ID   = 14208
ELEMENT_SET_NO = 999
REV_AT_EPOCH   = 31485
BSTAR          = .35191E-3
MEAN_MOTION_DOT = .1225E-3
MEAN_MOTION_DDOT = 0

CCSDS_OMM_VERS = 2.0
CREATION_DATE  = 
ORIGINATOR     = 

OBJECT_NAME    = COSMOS 1536
OBJECT_ID      = 1984-013A
CENTER_NAME    = EARTH
REF_FRAME      = TEME
TIME_SYSTEM    = UTC
MEAN_ELEMENT_THEORY = SGP/SGP4

EPOCH          = 2025-11-30T02:54:11.915136
MEAN_MOTION    = 15.22313943
ECCENTRICITY   = .001324
INCLINATION    = 82.5471
RA_OF_ASC_NODE = 206.6755
ARG_OF_PERICENTER = 275.1267
MEAN_ANOMALY   = 84.8458

EPHEMERIS_TYPE = 0
CLASSIFICATION_TYPE = U
NORAD_CAT_ID   = 14699
ELEMENT_SET_NO = 999
REV_AT_EPOCH   = 25746
BSTAR          = .31758E-3
MEAN_MOTION_DOT = .7365E-4
MEAN_MOTION_DDOT = 0

CCSDS_OMM_VERS = 2.0
CREATION_DATE  = 
ORIGINATOR     = 

OBJECT_NAME    = SL-14 R/B
OBJECT_ID      = 1984-027B
CENTER_NAME    = EARTH
REF_FRAME      = TEME
TIME_SYSTEM    = UTC
MEAN_ELEMENT_THEORY = SGP/SGP4

EPOCH          = 2025-11-30T02:19:53.136192
MEAN_MOTION    = 14.85852861
ECCENTRICITY   = .0016677
INCLINATION    = 82.5410
RA_OF_ASC_NODE = 338.4137
ARG_OF_PERICENTER = 306.5120
MEAN_ANOMALY   = 53.4560

EPHEMERIS_TYPE = 0
CLASSIFICATION_TYPE = U
NORAD_CAT_ID   = 14820
ELEMENT_SET_NO = 999
REV_AT_EPOCH   = 23284
BSTAR          = .71836E-4
MEAN_MOTION_DOT = .651E-5
MEAN_MOTION_DDOT = 0

CCSDS_OMM_VERS = 2.0
CREATION_DATE  = 
ORIGINATOR     = 

OBJECT_NAME    = SL-8 R/B
OBJECT_ID      = 1985-006B
CENTER_NAME    = EARTH
REF_FRAME      = TEME
TIME_SYSTEM    = UTC
MEAN_ELEMENT_THEORY = SGP/SGP4

EPOCH          = 2025-11-30T00:56:42.729216
MEAN_MOTION    = 14.37709055
ECCENTRICITY   = .0018137
INCLINATION    = 74.0460
RA_OF_ASC_NODE = 84.5001
ARG_OF_PERICENTER = 20.2516
MEAN_ANOMALY   = 153.0991

EPHEMERIS_TYPE = 0
CLASSIFICATION_TYPE = U
NORAD_CAT_ID   = 15483
ELEMENT_SET_NO = 999
REV_AT_EPOCH   = 13970
BSTAR          = .12234E-3
MEAN_MOTION_DOT = .342E-5
MEAN_MOTION_DDOT = 0

CCSDS_OMM_VERS = 2.0
CREATION_DATE  = 
ORIGINATOR     = 

OBJECT_NAME    = SL-12 R/B(2)
OBJECT_ID      = 1985-042D
CENTER_NAME    = EARTH
REF_FRAME      = TEME
TIME_SYSTEM    = UTC
MEAN_ELEMENT_THEORY = SGP/SGP4

EPOCH          = 2025-11-30T02:03:26.930304
MEAN_MOTION    = 14.21945426
ECCENTRICITY   = .0037673
INCLINATION    = 71.1080
RA_OF_ASC_NODE = 298.1528
ARG_OF_PERICENTER = 280.0028
MEAN_ANOMALY   = 153.0812

EPHEMERIS_TYPE = 0
CLASSIFICATION_TYPE = U
NORAD_CAT_ID   = 15772
ELEMENT_SET_NO = 999
REV_AT_EPOCH   = 10023
BSTAR          = .93986E-4
MEAN_MOTION_DOT = .161E-5
MEAN_MOTION_DDOT = 0

CCSDS_OMM_VERS = 2.0
CREATION_DATE  = 
ORIGINATOR     = 

OBJECT_NAME    = SL-14 R/B
OBJECT_ID      = 1985-069B
CENTER_NAME    = EARTH
REF_FRAME      = TEME
TIME_SYSTEM    = UTC
MEAN_ELEMENT_THEORY = SGP/SGP4

EPOCH          = 2025-11-29T21:50:42.855072
MEAN_MOTION    = 14.86299396
ECCENTRICITY   = .001934
INCLINATION    = 82.5253
RA_OF_ASC_NODE = 118.7637
ARG_OF_PERICENTER = 158.8662
MEAN_ANOMALY   = 201.3358

EPHEMERIS_TYPE = 0
CLASSIFICATION_TYPE = U
NORAD_CAT_ID   = 15945
ELEMENT_SET_NO = 999
REV_AT_EPOCH   = 15801
BSTAR          = .8005E-4
MEAN_MOTION_DOT = .731E-5
MEAN_MOTION_DDOT = 0

CCSDS_OMM_VERS = 2.0
CREATION_DATE  = 
ORIGINATOR     = 

OBJECT_NAME    = SL-16 R/B
OBJECT_ID      = 1985-097B
CENTER_NAME    = EARTH
REF_FRAME      = TEME
TIME_SYSTEM    = UTC
MEAN_ELEMENT_THEORY = SGP/SGP4

EPOCH          = 2025-11-30T01:31:09.717888
MEAN_MOTION    = 14.16582367
ECCENTRICITY   = .000593
INCLINATION    = 71.0035
RA_OF_ASC_NODE = 350.2917
ARG_OF_PERICENTER = 31.5319
MEAN_ANOMALY   = 0.2225

EPHEMERIS_TYPE = 0
CLASSIFICATION_TYPE = U
NORAD_CAT_ID   = 16182
ELEMENT_SET_NO = 999
REV_AT_EPOCH   = 7312
BSTAR          = -.52756E-4
MEAN_MOTION_DOT = -.153E-5
MEAN_MOTION_DDOT = 0

CCSDS_OMM_VERS = 2.0
CREATION_DATE  = 
ORIGINATOR     = 

OBJECT_NAME    = SL-14 R/B
OBJECT_ID      = 1986-006B
CENTER_NAME    = EARTH
REF_FRAME      = TEME
TIME_SYSTEM    = UTC
MEAN_ELEMENT_THEORY = SGP/SGP4

EPOCH          = 2025-11-30T02:43:27.126624
MEAN_MOTION    = 14.86644683
ECCENTRICITY   = .0075353
INCLINATION    = 82.5270
RA_OF_ASC_NODE = 353.4326
ARG_OF_PERICENTER = 242.2390
MEAN_ANOMALY   = 117.1172

EPHEMERIS_TYPE = 0
CLASSIFICATION_TYPE = U
NORAD_CAT_ID   = 16496
ELEMENT_SET_NO = 999
REV_AT_EPOCH   = 13441
BSTAR          = .87639E-4
MEAN_MOTION_DOT = .844E-5
MEAN_MOTION_DDOT = 0

CCSDS_OMM_VERS = 2.0
CREATION_DATE  = 
ORIGINATOR     = 

OBJECT_NAME    = COSMOS 1743
OBJECT_ID      = 1986-034A
CENTER_NAME    = EARTH
REF_FRAME      = TEME
TIME_SYSTEM    = UTC
MEAN_ELEMENT_THEORY = SGP/SGP4

EPOCH          = 2025-11-30T00:20:50.087040
MEAN_MOTION    = 15.51213861
ECCENTRICITY   = .0005106
INCLINATION    = 82.5357
RA_OF_ASC_NODE = 177.7990
ARG_OF_PERICENTER = 310.5142
MEAN_ANOMALY   = 49.5664

EPHEMERIS_TYPE = 0
CLASSIFICATION_TYPE = U
NORAD_CAT_ID   = 16719
ELEMENT_SET_NO = 999
REV_AT_EPOCH   = 16476
BSTAR          = .44031E-3
MEAN_MOTION_DOT = .25841E-3
MEAN_MOTION_DDOT = 0

