SL-3 R/B                
1 13403U 82079B   25334.07035262  .00006652  00000+0  27604-3 0  9999
2 13403  81.1462 310.5941 0026502 139.8845 220.4351 15.23369746362522
SL-14 R/B               
1 13553U 82092B   25334.17994806  .00000642  00000+0  69591-4 0  9994
2 13553  82.5689 234.4567 0018817 271.9431 252.9491 14.86535038314148
SL-3 R/B                
1 13819U 83010B   25333.86868267  .00015129  00000+0  34106-3 0  9995
2 13819  81.1022 124.3231 0017780  35.6889 324.5538 15.42950932342533
SL-3 R/B                
1 14208U 83075B   25334.08326817  .00012250  00000+0  35191-3 0  9991
2 14208  97.6106 330.1461 0021407 222.1798 137.7798 15.35754829314851
COSMOS 1536             
1 14699U 84013A   25334.12097124  .00007365  00000+0  31758-3 0  9995
2 14699  82.5471 206.6755 0013240 275.1267  84.8458 15.22313943257463
SL-14 R/B               
1 14820U 84027B   25334.09714278  .00000651  00000+0  71836-4 0  9991
2 14820  82.5410 338.4137 0016677 306.5120  53.4560 14.85852861232840
SL-8 R/B                
1 15483U 85006B   25334.03938344  .00000342  00000+0  12234-3 0  9994
2 15483  74.0460  84.5001 0018137  20.2516 153.0991 14.37709055139707
SL-12 R/B(2)            
1 15772U 85042D   25334.08572836  .00000161  00000+0  93986-4 0  9993
2 15772  71.1080 298.1528 0037673 280.0028 153.0812 14.21945426100236
SL-14 R/B               
1 15945U 85069B   25333.91021823  .00000731  00000+0  80050-4 0  9991
2 15945  82.5253 118.7637 0019340 158.8662 201.3358 14.86299396158011
SL-16 R/B               
1 16182U 85097B   25334.06330692 -.00000153  00000+0 -52756-4 0  9992
2 16182  71.0035 350.2917 0005930  31.5319   0.2225 14.16582367 73129
SL-14 R/B               
1 16496U 86006B   25334.11350841  .00000844  00000+0  87639-4 0  9998
2 16496  82.5270 353.4326 0075353 242.2390 117.1172 14.86644683134416
COSMOS 1743             
1 16719U 86034A   25334.01446860  .00025841  00000+0  44031-3 0  9995
2 16719  82.5357 177.7990 0005106 310.5142  49.5664 15.51213861164765
